2 52657  53.2177  85.6392 0001491  97.9374 262.1788 15.08843777104761
STARLINK-4082           
1 52658U 22053C   24093.70822264  .00006798  00000+0  44467-3 0  9994
2 52658  53.2154  83.3928 0001251  90.9432 269.1703 15.08851406104659
STARLINK-3960           
1 52659U 22053D   24093.70453458  .00000408  00000+0  43725-4 0  9999
2 52659  53.2152  83.3621 0001108  90.9040 269.2079 15.08844567104640
STARLINK-4081           
1 52660U 22053E   24093.96582189  .00000565  00000+0  53590-4 0  9998
2 52660  53.2173  82.2368 0001667  89.4218 270.6966 15.08840478104571
STARLINK-4042           
1 52661U 22053F   24093.69718446  .00005790  00000+0  38153-3 0  9998
2 52661  53.2159  83.4425 0001822  84.4554 275.6646 15.08847126104469
STARLINK-4044           
1 52662U 22053G   24093.95479702  .00000242  00000+0  33301-4 0  9995
2 52662  53.2177  82.2878 0001467  83.2485 276.8674 15.08839379104504
STARLINK-4037           
1 52663U 22053H   24093.95110600  .00003208  00000+0  21954-3 0  9990
2 52663  53.2160  82.3037 0001311  91.7860 268.3283 15.08837017104503
STARLINK-4070           
1 52664U 22053J   24093.95846830  .00000746  00000+0  64968-4 0  9999
2 52664  53.2180  82.2696 0001525  89.5058 270.6108 15.08839277104509
STARLINK-4064           
1 52665U 22053K   24093.67510384  .00002023  00000+0  14513-3 0  9991
2 52665  53.2178  83.5429 0001575  94.4938 265.6234 15.08846896104466
STARLINK-4079           
1 52666U 22053L   24093.24816843  .00003553  00000+0  24116-3 0  9993
2 52666  53.2166  85.0724 0001376  89.6872 270.4278 15.08850124104406
STARLINK-4076           
1 52667U 22053M   24093.67142432  .00000036  00000+0  20328-4 0  9992
2 52667  53.2161  83.5584 0001345  96.1741 263.9404 15.08838028104466
STARLINK-4067           
1 52668U 22053N   24093.67877902  .00001281  00000+0  98551-4 0  9996
2 52668  53.2164  83.5250 0001218  89.4576 270.6556 15.08845761104465
STARLINK-3972           
1 52669U 22053P   24093.66038343  .00007521  00000+0  49000-3 0  9991
2 52669  53.2171  83.6084 0001567  94.4846 265.6325 15.08850419104456
STARLINK-4075           
1 52670U 22053Q   24093.94743268 -.00006132  00000+0 -36721-3 0  9998
2 52670  53.2165  82.3848 0001880  98.1566 261.9639 15.08869244104502
STARLINK-4071           
1 52671U 22053R   24093.25927346 -.00002111  00000+0 -11464-3 0  9994
2 52671  53.2161  85.4058 0001424  96.6884 263.4270 15.08825796104395
STARLINK-4073           
1 52672U 22053S   24093.66774255  .00001679  00000+0  12355-3 0  9995
2 52672  53.2164  83.5748 0001289  92.1252 267.9888 15.08842190104451
STARLINK-3976           
1 52673U 22053T   24093.38440337  .00016173  00000+0  10326-2 0  9996
2 52673  53.2163  84.8466 0001390  74.5285 285.5861 15.08816303104415
STARLINK-3936           
1 52674U 22053U   24093.66406518  .00002212  00000+0  15698-3 0  9998
2 52674  53.2168  83.5896 0001115  96.3672 263.7447 15.08842407104468
STARLINK-3934           
1 52675U 22053V   24093.31538350 -.00000726  00000+0 -27498-4 0  9993
2 52675  53.2195  75.1582 0002018 111.6171 248.5036 15.08845468104539
STARLINK-4006           
1 52676U 22053W   24093.38806094  .00002605  00000+0  18167-3 0  9992
2 52676  53.2171  84.8269 0001492 109.0033 251.1121 15.08844277104415
STARLINK-4028           
1 52677U 22053X   24093.63922321  .00000126  00000+0  26024-4 0  9991
2 52677  53.2171  73.6988 0001317  88.1354 271.9789 15.08836977104563
STARLINK-4074           
1 52678U 22053Y   24093.92259956  .00002200  00000+0  15628-3 0  9993
2 52678  53.2182  72.5392 0001806  81.6273 278.4923 15.08838018104621
STARLINK-4031           
1 52679U 22053Z   24093.16453010 -.00005472  00000+0 -32629-3 0  9993
2 52679  53.2164  75.8333 0001383  36.6845 323.4242 15.08802025104475
STARLINK-3774           
1 52680U 22053AA  24093.95443786  .00000858  00000+0  69135-4 0  9995
2 52680  53.2174  72.0807 0001564  86.4996 273.6176 15.10469444104619
STARLINK-4068           
1 52681U 22053AB  24093.95570197  .00001206  00000+0  93865-4 0  9998
2 52681  53.2174  72.2821 0001471  99.2554 260.8605 15.08840560104598
STARLINK-4017           
1 52682U 22053AC  24093.96674802 -.00000545  00000+0 -16167-4 0  9995
2 52682  53.2177  72.2308 0001225  91.6953 268.4180 15.08838287104616
STARLINK-4039           
1 52683U 22053AD  24093.94834399 -.00000762  00000+0 -29760-4 0  9997
2 52683  53.2169  72.3128 0001499  95.3846 264.7318 15.08837421104592
STARLINK-4014           
1 52684U 22053AE  24093.63187264  .00014914  00000+0  95264-3 0  9999
2 52684  53.2168  73.7356 0001372  93.7858 266.3291 15.08860937104546
STARLINK-4029           
1 52685U 22053AF  24093.94097914 -.00004041  00000+0 -23603-3 0  9996
2 52685  53.2160  72.3469 0001589  92.7613 267.3561 15.08829996104571
STARLINK-4005           
1 52686U 22053AG  24093.95202413  .00000324  00000+0  38479-4 0  9996
2 52686  53.2177  72.2981 0001749  94.2287 265.8905 15.08842109104587
STARLINK-3981           
1 52687U 22053AH  24093.67234556  .00000108  00000+0  24907-4 0  9990
2 52687  53.2168  73.5542 0001444  86.1721 273.9436 15.08841826104539
STARLINK-4032           
1 52688U 22053AJ  24093.93360973  .00000894  00000+0  74243-4 0  9993
2 52688  53.2162  72.2642 0002083  84.1343 275.9886 15.08842494104576
STARLINK-4078           
1 52689U 22053AK  24093.66131008  .00000054  00000+0  21457-4 0  9996
2 52689  53.2166  73.6045 0001191  93.5365 266.5764 15.08836221104561
STARLINK-4035           
1 52690U 22053AL  24093.94466505 -.00000094  00000+0  12206-4 0  9999
2 52690  53.2171  72.3297 0001385  91.0936 269.0215 15.08839233104572
STARLINK-3945           
1 52691U 22053AM  24093.94564853  .00000096  00000+0  24108-4 0  9990
2 52691  53.2168  72.5780 0001450  90.1888 269.9270 15.08839582104608
STARLINK-3993           
1 52692U 22053AN  24093.97408560  .00000458  00000+0  46874-4 0  9992
2 52692  53.2190  71.9294 0002090  97.0573 263.0656 15.08827138104613
STARLINK-3946           
1 52693U 22053AP  24093.38530811  .00002367  00000+0  16679-3 0  9993
2 52693  53.2194  74.8453 0001648 103.1110 257.0066 15.08836907104523
STARLINK-4072           
1 52694U 22053AQ  24093.92994691  .00000631  00000+0  57711-4 0  9999
2 52694  53.2179  72.3991 0001503  85.9130 274.2034 15.08839979104603
STARLINK-4041           
1 52695U 22053AR  24093.96810276 -.00000364  00000+0 -47540-5 0  9995
2 52695  53.2179  77.0189 0001584  93.1416 266.9758 15.08832985104557
STARLINK-4025           
1 52696U 22053AS  24093.65394519  .00001206  00000+0  93877-4 0  9996
2 52696  53.2193  73.6382 0001592  93.8520 266.2654 15.08839458104564
STARLINK-4018           
1 52697U 22053AT  24093.66364113  .00005066  00000+0  33607-3 0  9997
2 52697  53.2184  78.5954 0001561  94.7328 265.3843 15.08848026104501
STARLINK-4030           
1 52698U 22053AU  24093.93867623  .00001556  00000+0  11581-3 0  9999
2 52698  53.2151  77.3494 0002322  84.0729 276.0527 15.08848000104538
STARLINK-3987           
1 52699U 22053AV  24093.65256948  .00000062  00000+0  22010-4 0  9992
2 52699  53.2181  68.6709 0001436  86.9517 273.1640 15.08842286104652
STARLINK-4034           
1 52700U 22053AW  24093.96440119  .00000526  00000+0  51157-4 0  9993
2 52700  53.2173  76.8820 0001573 101.3592 258.7577 15.08837944104550
STARLINK-4003           
1 52701U 22053AX  24093.89774410  .00000441  00000+0  45783-4 0  9994
2 52701  53.2174  62.5415 0001477  94.4610 265.6551 15.08832078104765
STARLINK-4033           
1 52702U 22053AY  24093.66268704  .00004667  00000+0  31103-3 0  9998
2 52702  53.2172  78.6259 0001572  90.6834 269.4339 15.08849970104507
STARLINK-4020           
1 52703U 22053AZ  24093.62174040  .00002382  00000+0  16764-3 0  9992
2 52703  53.2196  63.7944 0001400  88.8768 271.2385 15.08849357103448
STARLINK-3999           
1 52704U 22053BA  24093.90142268  .00003301  00000+0  22541-3 0  9993
2 52704  53.2181  62.5272 0002116  81.1511 278.9721 15.08844194104769
STARLINK-3844           
1 52705U 22053BB  24093.89039137  .00000779  00000+0  67057-4 0  9990
2 52705  53.2187  62.5772 0001325  92.1083 268.0061 15.08835299104761
STARLINK-3970           
1 52706U 22053BC  24093.89406500  .00005890  00000+0  38775-3 0  9996
2 52706  53.2177  62.5610 0002140  80.8229 279.3005 15.08847311104765
STARLINK-4007           
1 52707U 22053BD  24093.93821750  .00005062  00000+0  33608-3 0  9991
2 52707  53.2163  62.2438 0001396  95.3490 264.7662 15.08823339104838
STARLINK-3962           
1 52708U 22053BE  24093.65120609  .00002599  00000+0  18138-3 0  9999
2 52708  53.2174  63.6406 0001472  92.9624 267.1536 15.08832742104934
STARLINK-4091           
1 52830U 22062A   24093.92904697 -.00001263  00000+0 -61322-4 0  9995
2 52830  53.2167 322.6002 0000669 105.0947 255.0120 15.08838248 99231
STARLINK-4089           
1 52831U 22062B   24093.92166816  .00000591  00000+0  55222-4 0  9992
2 52831  53.2174 322.4369 0001161  95.2077 264.9047 15.08837868 99746
STARLINK-4083           
1 52832U 22062C   24093.91798735  .00001956  00000+0  14095-3 0  9991
2 52832  53.2178 322.4528 0001346  93.1043 267.0104 15.08839502 99232
STARLINK-4086           
1 52833U 22062D   24093.91430717  .00006043  00000+0  39744-3 0  9995
2 52833  53.2183 322.4709 0000947  93.8066 266.3034 15.08837230 99238
STARLINK-4108           
1 52834U 22062E   24093.90694073  .00019416  00000+0  12336-2 0  9997
2 52834  53.2174 322.5030 0001230  73.4271 286.6856 15.08871742 99238
STARLINK-4080           
1 52835U 22062F   24093.90326601  .00001713  00000+0  12568-3 0  9996
2 52835  53.2168 322.5182 0001233  99.3440 260.7692 15.08841354 99235
STARLINK-4043           
1 52836U 22062G   24093.89959206  .00006422  00000+0  42125-3 0  9992
2 52836  53.2173 322.5371 0001248  95.3610 264.7524 15.08835982 99231
STARLINK-4036           
1 52837U 22062H   24093.89223294  .00004749  00000+0  31637-3 0  9990
2 52837  53.2178 322.5705 0001364  79.5503 280.5643 15.08830614 99237
